[{"OBJECT_NAME":"ASTRA 2G","OBJECT_ID":"2014-089A","EPOCH":"2026-03-06T14:05:26.227968","MEAN_MOTION":1.0027328,"ECCENTRICITY":0.00044719,"INCLINATION":0.0608,"RA_OF_ASC_NODE":344.1773,"ARG_OF_PERICENTER":46.7275,"MEAN_ANOMALY":12.9272,"EPHEMERIS_TYPE":0,"CLASSIFICATION_TYPE":"U","NORAD_CAT_ID":40364,"ELEMENT_SET_NO":999,"REV_AT_EPOCH":4093,"BSTAR":0,"MEAN_MOTION_DOT":1.46e-6,"MEAN_MOTION_DDOT":0},{"OBJECT_NAME":"FENGYUN 2G","OBJECT_ID":"2014-090A","EPOCH":"2026-03-06T12:43:12.279072","MEAN_MOTION":1.00273916,"ECCENTRICITY":0.00016863,"INCLINATION":5.3795,"RA_OF_ASC_NODE":74.0622,"ARG_OF_PERICENTER":150.5335,"MEAN_ANOMALY":230.1497,"EPHEMERIS_TYPE":0,"CLASSIFICATION_TYPE":"U","NORAD_CAT_ID":40367,"ELEMENT_SET_NO":999,"REV_AT_EPOCH":4097,"BSTAR":0,"MEAN_MOTION_DOT":-3.05e-6,"MEAN_MOTION_DDOT":0},{"OBJECT_NAME":"MUOS-3","OBJECT_ID":"2015-002A","EPOCH":"2026-03-06T19:00:57.890016","MEAN_MOTION":1.00273077,"ECCENTRICITY":0.0053158,"INCLINATION":4.3238,"RA_OF_ASC_NODE":42.9944,"ARG_OF_PERICENTER":183.9332,"MEAN_ANOMALY":207.3359,"EPHEMERIS_TYPE":0,"CLASSIFICATION_TYPE":"U","NORAD_CAT_ID":40374,"ELEMENT_SET_NO":999,"REV_AT_EPOCH":4056,"BSTAR":0,"MEAN_MOTION_DOT":-1.3e-6,"MEAN_MOTION_DDOT":0},{"OBJECT_NAME":"INMARSAT 5-F2","OBJECT_ID":"2015-005A","EPOCH":"2026-03-05T12:01:30.518688","MEAN_MOTION":1.00272082,"ECCENTRICITY":3.09e-5,"INCLINATION":0.0199,"RA_OF_ASC_NODE":134.3302,"ARG_OF_PERICENTER":107.1043,"MEAN_ANOMALY":47.125,"EPHEMERIS_TYPE":0,"CLASSIFICATION_TYPE":"U","NORAD_CAT_ID":40384,"ELEMENT_SET_NO":999,"REV_AT_EPOCH":3995,"BSTAR":0,"MEAN_MOTION_DOT":-2.93e-6,"MEAN_MOTION_DDOT":0},{"OBJECT_NAME":"ABS-3A","OBJECT_ID":"2015-010A","EPOCH":"2026-03-06T08:48:34.777152","MEAN_MOTION":1.00270969,"ECCENTRICITY":0.00018371,"INCLINATION":0.0128,"RA_OF_ASC_NODE":149.6304,"ARG_OF_PERICENTER":138.3862,"MEAN_ANOMALY":5.2401,"EPHEMERIS_TYPE":0,"CLASSIFICATION_TYPE":"U","NORAD_CAT_ID":40424,"ELEMENT_SET_NO":999,"REV_AT_EPOCH":4034,"BSTAR":0,"MEAN_MOTION_DOT":-3.1e-7,"MEAN_MOTION_DDOT":0},{"OBJECT_NAME":"EUTELSAT 115 WEST B","OBJECT_ID":"2015-010B","EPOCH":"2026-03-05T06:41:38.757120","MEAN_MOTION":1.00272581,"ECCENTRICITY":1.8e-5,"INCLINATION":0.029,"RA_OF_ASC_NODE":16.3684,"ARG_OF_PERICENTER":73.5386,"MEAN_ANOMALY":58.6084,"EPHEMERIS_TYPE":0,"CLASSIFICATION_TYPE":"U","NORAD_CAT_ID":40425,"ELEMENT_SET_NO":999,"REV_AT_EPOCH":4035,"BSTAR":0,"MEAN_MOTION_DOT":-3.3e-7,"MEAN_MOTION_DDOT":0},{"OBJECT_NAME":"EXPRESS-AM7","OBJECT_ID":"2015-012A","EPOCH":"2026-03-05T12:28:35.421024","MEAN_MOTION":1.0027626,"ECCENTRICITY":0.0002951,"INCLINATION":0.0205,"RA_OF_ASC_NODE":190.53,"ARG_OF_PERICENTER":142.4206,"MEAN_ANOMALY":57.4704,"EPHEMERIS_TYPE":0,"CLASSIFICATION_TYPE":"U","NORAD_CAT_ID":40505,"ELEMENT_SET_NO":999,"REV_AT_EPOCH":3996,"BSTAR":0,"MEAN_MOTION_DOT":1.43e-6,"MEAN_MOTION_DDOT":0},{"OBJECT_NAME":"BEIDOU-3S IGSO-1S","OBJECT_ID":"2015-019A","EPOCH":"2026-03-06T14:25:01.847712","MEAN_MOTION":1.00273571,"ECCENTRICITY":0.00357642,"INCLINATION":49.3862,"RA_OF_ASC_NODE":296.6971,"ARG_OF_PERICENTER":190.6092,"MEAN_ANOMALY":349.746,"EPHEMERIS_TYPE":0,"CLASSIFICATION_TYPE":"U","NORAD_CAT_ID":40549,"ELEMENT_SET_NO":999,"REV_AT_EPOCH":4004,"BSTAR":0,"MEAN_MOTION_DOT":-1.64e-6,"MEAN_MOTION_DDOT":0},{"OBJECT_NAME":"THOR 7","OBJECT_ID":"2015-022A","EPOCH":"2026-03-06T19:05:19.970592","MEAN_MOTION":1.00272051,"ECCENTRICITY":0.0002627,"INCLINATION":0.0102,"RA_OF_ASC_NODE":148.4136,"ARG_OF_PERICENTER":201.9777,"MEAN_ANOMALY":99.775,"EPHEMERIS_TYPE":0,"CLASSIFICATION_TYPE":"U","NORAD_CAT_ID":40613,"ELEMENT_SET_NO":999,"REV_AT_EPOCH":3978,"BSTAR":0,"MEAN_MOTION_DOT":-1.2e-7,"MEAN_MOTION_DDOT":0},{"OBJECT_NAME":"TURKMENALEM52E/MONACOSAT","OBJECT_ID":"2015-023A","EPOCH":"2026-03-05T10:49:22.435104","MEAN_MOTION":1.00275311,"ECCENTRICITY":0.0002927,"INCLINATION":0.0146,"RA_OF_ASC_NODE":131.0008,"ARG_OF_PERICENTER":224.4072,"MEAN_ANOMALY":22.1559,"EPHEMERIS_TYPE":0,"CLASSIFICATION_TYPE":"U","NORAD_CAT_ID":40617,"ELEMENT_SET_NO":999,"REV_AT_EPOCH":3980,"BSTAR":0,"MEAN_MOTION_DOT":9.6e-7,"MEAN_MOTION_DDOT":0},{"OBJECT_NAME":"DIRECTV 15","OBJECT_ID":"2015-026A","EPOCH":"2026-03-06T13:28:07.305024","MEAN_MOTION":1.00272963,"ECCENTRICITY":6.192e-5,"INCLINATION":0.0234,"RA_OF_ASC_NODE":103.4295,"ARG_OF_PERICENTER":85.179,"MEAN_ANOMALY":74.8135,"EPHEMERIS_TYPE":0,"CLASSIFICATION_TYPE":"U","NORAD_CAT_ID":40663,"ELEMENT_SET_NO":999,"REV_AT_EPOCH":3943,"BSTAR":0,"MEAN_MOTION_DOT":-1.07e-6,"MEAN_MOTION_DDOT":0},{"OBJECT_NAME":"SKY MEXICO-1","OBJECT_ID":"2015-026B","EPOCH":"2026-03-05T10:11:56.023872","MEAN_MOTION":1.00269501,"ECCENTRICITY":0.000225,"INCLINATION":0.02,"RA_OF_ASC_NODE":125.8533,"ARG_OF_PERICENTER":238.8701,"MEAN_ANOMALY":232.6041,"EPHEMERIS_TYPE":0,"CLASSIFICATION_TYPE":"U","NORAD_CAT_ID":40664,"ELEMENT_SET_NO":999,"REV_AT_EPOCH":3941,"BSTAR":0,"MEAN_MOTION_DOT":-2.42e-6,"MEAN_MOTION_DDOT":0},{"OBJECT_NAME":"METEOSAT-11 (MSG-4)","OBJECT_ID":"2015-034A","EPOCH":"2026-03-06T19:08:12.196032","MEAN_MOTION":1.00266852,"ECCENTRICITY":0.0001807,"INCLINATION":2.9437,"RA_OF_ASC_NODE":71.6666,"ARG_OF_PERICENTER":271.0228,"MEAN_ANOMALY":118.2219,"EPHEMERIS_TYPE":0,"CLASSIFICATION_TYPE":"U","NORAD_CAT_ID":40732,"ELEMENT_SET_NO":999,"REV_AT_EPOCH":619,"BSTAR":0,"MEAN_MOTION_DOT":5.9e-7,"MEAN_MOTION_DDOT":0},{"OBJECT_NAME":"STAR ONE C4","OBJECT_ID":"2015-034B","EPOCH":"2026-03-06T18:45:36.861696","MEAN_MOTION":1.00272329,"ECCENTRICITY":0.0002755,"INCLINATION":0.04,"RA_OF_ASC_NODE":28.8911,"ARG_OF_PERICENTER":326.4136,"MEAN_ANOMALY":20.5866,"EPHEMERIS_TYPE":0,"CLASSIFICATION_TYPE":"U","NORAD_CAT_ID":40733,"ELEMENT_SET_NO":999,"REV_AT_EPOCH":3898,"BSTAR":0,"MEAN_MOTION_DOT":-2.68e-6,"MEAN_MOTION_DDOT":0},{"OBJECT_NAME":"WGS F7 (USA 263)","OBJECT_ID":"2015-036A","EPOCH":"2026-03-05T19:57:47.509632","MEAN_MOTION":1.00272768,"ECCENTRICITY":1.839e-5,"INCLINATION":0.0133,"RA_OF_ASC_NODE":121.8687,"ARG_OF_PERICENTER":215.9784,"MEAN_ANOMALY":300.1725,"EPHEMERIS_TYPE":0,"CLASSIFICATION_TYPE":"U","NORAD_CAT_ID":40746,"ELEMENT_SET_NO":999,"REV_AT_EPOCH":3883,"BSTAR":0,"MEAN_MOTION_DOT":1.1e-7,"MEAN_MOTION_DDOT":0},{"OBJECT_NAME":"INTELSAT 34 (IS-34)","OBJECT_ID":"2015-039A","EPOCH":"2026-03-06T11:59:01.515840","MEAN_MOTION":1.00267445,"ECCENTRICITY":5.873e-5,"INCLINATION":0.0146,"RA_OF_ASC_NODE":175.2489,"ARG_OF_PERICENTER":272.5618,"MEAN_ANOMALY":200.6847,"EPHEMERIS_TYPE":0,"CLASSIFICATION_TYPE":"U","NORAD_CAT_ID":40874,"ELEMENT_SET_NO":999,"REV_AT_EPOCH":3859,"BSTAR":0,"MEAN_MOTION_DOT":0,"MEAN_MOTION_DDOT":0},{"OBJECT_NAME":"EUTELSAT 8 WEST B","OBJECT_ID":"2015-039B","EPOCH":"2026-03-06T10:24:38.712096","MEAN_MOTION":1.00271762,"ECCENTRICITY":0.00038125,"INCLINATION":0.0673,"RA_OF_ASC_NODE":1.5995,"ARG_OF_PERICENTER":343.7552,"MEAN_ANOMALY":326.9541,"EPHEMERIS_TYPE":0,"CLASSIFICATION_TYPE":"U","NORAD_CAT_ID":40875,"ELEMENT_SET_NO":999,"REV_AT_EPOCH":3862,"BSTAR":0,"MEAN_MOTION_DOT":-7.0e-7,"MEAN_MOTION_DDOT":0},{"OBJECT_NAME":"GSAT-6","OBJECT_ID":"2015-041A","EPOCH":"2026-03-06T19:29:02.696928","MEAN_MOTION":1.00274465,"ECCENTRICITY":0.0002847,"INCLINATION":1.654,"RA_OF_ASC_NODE":83.9344,"ARG_OF_PERICENTER":267.5575,"MEAN_ANOMALY":187.7736,"EPHEMERIS_TYPE":0,"CLASSIFICATION_TYPE":"U","NORAD_CAT_ID":40880,"ELEMENT_SET_NO":999,"REV_AT_EPOCH":3857,"BSTAR":0,"MEAN_MOTION_DOT":-1.63e-6,"MEAN_MOTION_DDOT":0},{"OBJECT_NAME":"INMARSAT 5-F3","OBJECT_ID":"2015-042A","EPOCH":"2026-03-05T12:41:38.657760","MEAN_MOTION":1.00271442,"ECCENTRICITY":0.0001291,"INCLINATION":0.0207,"RA_OF_ASC_NODE":137.2515,"ARG_OF_PERICENTER":261.407,"MEAN_ANOMALY":134.6151,"EPHEMERIS_TYPE":0,"CLASSIFICATION_TYPE":"U","NORAD_CAT_ID":40882,"ELEMENT_SET_NO":999,"REV_AT_EPOCH":3853,"BSTAR":0,"MEAN_MOTION_DOT":4.3e-7,"MEAN_MOTION_DDOT":0},{"OBJECT_NAME":"MUOS-4","OBJECT_ID":"2015-044A","EPOCH":"2026-03-06T14:19:02.422848","MEAN_MOTION":1.00271904,"ECCENTRICITY":0.00583816,"INCLINATION":4.1377,"RA_OF_ASC_NODE":41.5374,"ARG_OF_PERICENTER":358.3201,"MEAN_ANOMALY":54.1768,"EPHEMERIS_TYPE":0,"CLASSIFICATION_TYPE":"U","NORAD_CAT_ID":40887,"ELEMENT_SET_NO":999,"REV_AT_EPOCH":3853,"BSTAR":0,"MEAN_MOTION_DOT":-9.5e-7,"MEAN_MOTION_DDOT":0},{"OBJECT_NAME":"TJS-1","OBJECT_ID":"2015-046A","EPOCH":"2026-03-06T19:49:45.712128","MEAN_MOTION":1.00271161,"ECCENTRICITY":0.0004503,"INCLINATION":0.0597,"RA_OF_ASC_NODE":85.0648,"ARG_OF_PERICENTER":297.8734,"MEAN_ANOMALY":234.0699,"EPHEMERIS_TYPE":0,"CLASSIFICATION_TYPE":"U","NORAD_CAT_ID":40892,"ELEMENT_SET_NO":999,"REV_AT_EPOCH":3854,"BSTAR":0,"MEAN_MOTION_DOT":-1.59e-6,"MEAN_MOTION_DDOT":0},{"OBJECT_NAME":"EXPRESS-AM8","OBJECT_ID":"2015-048A","EPOCH":"2026-03-06T20:44:16.122336","MEAN_MOTION":1.00272175,"ECCENTRICITY":7.5e-6,"INCLINATION":0.0161,"RA_OF_ASC_NODE":230.8039,"ARG_OF_PERICENTER":89.3233,"MEAN_ANOMALY":141.5107,"EPHEMERIS_TYPE":0,"CLASSIFICATION_TYPE":"U","NORAD_CAT_ID":40895,"ELEMENT_SET_NO":999,"REV_AT_EPOCH":3832,"BSTAR":0,"MEAN_MOTION_DOT":-1.15e-6,"MEAN_MOTION_DDOT":0},{"OBJECT_NAME":"SKY MUSTER 1 (NBN1A)","OBJECT_ID":"2015-054A","EPOCH":"2026-03-05T12:57:10.181088","MEAN_MOTION":1.00271284,"ECCENTRICITY":0.00017362,"INCLINATION":0.0201,"RA_OF_ASC_NODE":170.7559,"ARG_OF_PERICENTER":171.8393,"MEAN_ANOMALY":155.2123,"EPHEMERIS_TYPE":0,"CLASSIFICATION_TYPE":"U","NORAD_CAT_ID":40940,"ELEMENT_SET_NO":999,"REV_AT_EPOCH":3822,"BSTAR":0,"MEAN_MOTION_DOT":0,"MEAN_MOTION_DDOT":0},{"OBJECT_NAME":"ARSAT 2","OBJECT_ID":"2015-054B","EPOCH":"2026-03-06T13:34:21.707328","MEAN_MOTION":1.00272552,"ECCENTRICITY":0.0002059,"INCLINATION":0.0162,"RA_OF_ASC_NODE":76.8978,"ARG_OF_PERICENTER":260.6278,"MEAN_ANOMALY":309.3366,"EPHEMERIS_TYPE":0,"CLASSIFICATION_TYPE":"U","NORAD_CAT_ID":40941,"ELEMENT_SET_NO":999,"REV_AT_EPOCH":3827,"BSTAR":0,"MEAN_MOTION_DOT":-2.29e-6,"MEAN_MOTION_DDOT":0}]
